start=new Date('2023-03-21T00:00:00.000Z').valueOf();
sats=[{"NORAD_CAT_ID":"53204","RCS_SIZE":"LARGE","MEAN_MOTION_DOT":"0.00001028","SITE":"AFWTR","ARG_OF_PERICENTER":"250.4482","LAUNCH_DATE":"2022-07-22","OBJECT_TYPE":"PAYLOAD","EPHEMERIS_TYPE":"0","MEAN_MOTION":"15.01262530","TLE_LINE1":"1 53204U 22084R   23079.73043548  .00001028  00000-0  84617-4 0  9996","CENTER_NAME":"EARTH","ELEMENT_SET_NO":"999","MEAN_MOTION_DDOT":"0.0000000000000","BSTAR":"0.00008461700000","CLASSIFICATION_TYPE":"U","TIME_SYSTEM":"UTC","GP_ID":"228547700","REV_AT_EPOCH":"3719","INCLINATION":"97.6576","REF_FRAME":"TEME","RA_OF_ASC_NODE":"142.0582","APOAPSIS":"564.070","ECCENTRICITY":"0.00015360","TLE_LINE2":"2 53204  97.6576 142.0582 0001536 250.4482 109.6577 15.01262530 37198","PERIOD":"95.919","FILE":"3866115","PERIAPSIS":"561.938","OBJECT_NAME":"STARLINK-4410","COUNTRY_CODE":"US","DECAY_DATE":null,"MEAN_ELEMENT_THEORY":"SGP4","EPOCH":"2023-03-20T17:31:49.625472","MEAN_ANOMALY":"109.6577","SEMIMAJOR_AXIS":"6941.139","OBJECT_ID":"2022-084R"},{"OBJECT_TYPE":"PAYLOAD","ARG_OF_PERICENTER":"101.5709","LAUNCH_DATE":"2022-07-22","TLE_LINE1":"1 53205U 22084S   23079.72118544  .00001786  00000-0  14360-3 0  9993","MEAN_MOTION":"15.01262162","EPHEMERIS_TYPE":"0","NORAD_CAT_ID":"53205","RCS_SIZE":"LARGE","SITE":"AFWTR","MEAN_MOTION_DOT":"0.00001786","MEAN_MOTION_DDOT":"0.0000000000000","BSTAR":"0.00014360000000","CLASSIFICATION_TYPE":"U","ELEMENT_SET_NO":"999","GP_ID":"228548451","REV_AT_EPOCH":"3653","TIME_SYSTEM":"UTC","CENTER_NAME":"EARTH","PERIAPSIS":"561.894","FILE":"3866115","OBJECT_NAME":"STARLINK-4397","ECCENTRICITY":"0.00016010","APOAPSIS":"564.116","RA_OF_ASC_NODE":"142.0610","REF_FRAME":"TEME","INCLINATION":"97.6572","TLE_LINE2":"2 53205  97.6572 142.0610 0001601 101.5709 258.5695 15.01262162 36531","PERIOD":"95.919","EPOCH":"2023-03-20T17:18:30.422016","MEAN_ANOMALY":"258.5695","MEAN_ELEMENT_THEORY":"SGP4","OBJECT_ID":"2022-084S","SEMIMAJOR_AXIS":"6941.140","COUNTRY_CODE":"US","DECAY_DATE":null},{"PERIOD":"95.919","TLE_LINE2":"2 53206  97.6594 142.0582 0001258 105.4038 254.7326 15.01260412 36535","REF_FRAME":"TEME","APOAPSIS":"563.884","ECCENTRICITY":"0.00012580","RA_OF_ASC_NODE":"142.0582","INCLINATION":"97.6594","OBJECT_NAME":"STARLINK-4408","PERIAPSIS":"562.137","FILE":"3866115","DECAY_DATE":null,"COUNTRY_CODE":"US","OBJECT_ID":"2022-084T","SEMIMAJOR_AXIS":"6941.146","MEAN_ANOMALY":"254.7326","EPOCH":"2023-03-20T17:24:11.132640","MEAN_ELEMENT_THEORY":"SGP4","MEAN_MOTION_DOT":"0.00002349","SITE":"AFWTR","NORAD_CAT_ID":"53206","RCS_SIZE":"LARGE","MEAN_MOTION":"15.01260412","TLE_LINE1":"1 53206U 22084T   23079.72512885  .00002349  00000-0  18738-3 0  9999","EPHEMERIS_TYPE":"0","ARG_OF_PERICENTER":"105.4038","LAUNCH_DATE":"2022-07-22","OBJECT_TYPE":"PAYLOAD","CENTER_NAME":"EARTH","GP_ID":"228548702","REV_AT_EPOCH":"3653","TIME_SYSTEM":"UTC","CLASSIFICATION_TYPE":"U","MEAN_MOTION_DDOT":"0.0000000000000","ELEMENT_SET_NO":"999","BSTAR":"0.00018738000000"},{"PERIAPSIS":"561.997","FILE":"3866115","OBJECT_NAME":"STARLINK-4413","REF_FRAME":"TEME","RA_OF_ASC_NODE":"142.0608","APOAPSIS":"564.016","ECCENTRICITY":"0.00014540","INCLINATION":"97.6580","TLE_LINE2":"2 53207  97.6580 142.0608 0001454 102.9052 257.2334 15.01261789 36531","PERIOD":"95.919","MEAN_ANOMALY":"257.2334","EPOCH":"2023-03-20T17:15:50.424768","MEAN_ELEMENT_THEORY":"SGP4","OBJECT_ID":"2022-084U","SEMIMAJOR_AXIS":"6941.141","COUNTRY_CODE":"US","DECAY_DATE":null,"LAUNCH_DATE":"2022-07-22","ARG_OF_PERICENTER":"102.9052","OBJECT_TYPE":"PAYLOAD","MEAN_MOTION":"15.01261789","TLE_LINE1":"1 53207U 22084U   23079.71933362  .00001063  00000-0  87319-4 0  9990","EPHEMERIS_TYPE":"0","NORAD_CAT_ID":"53207","RCS_SIZE":"LARGE","MEAN_MOTION_DOT":"0.00001063","SITE":"AFWTR","MEAN_MOTION_DDOT":"0.0000000000000","CLASSIFICATION_TYPE":"U","BSTAR":"0.00008731900000","ELEMENT_SET_NO":"999","GP_ID":"228549448","REV_AT_EPOCH":"3653","TIME_SYSTEM":"UTC","CENTER_NAME":"EARTH"},{"SEMIMAJOR_AXIS":"6941.132","OBJECT_ID":"2022-084V","MEAN_ELEMENT_THEORY":"SGP4","MEAN_ANOMALY":"122.4224","EPOCH":"2023-03-20T17:26:29.545440","DECAY_DATE":null,"COUNTRY_CODE":"US","OBJECT_NAME":"STARLINK-4425","FILE":"3866115","PERIAPSIS":"562.346","PERIOD":"95.919","TLE_LINE2":"2 53208  97.6583 142.0573 0000939 237.6910 122.4224 15.01264659 36532","INCLINATION":"97.6583","REF_FRAME":"TEME","APOAPSIS":"563.649","RA_OF_ASC_NODE":"142.0573","ECCENTRICITY":"0.00009390","TIME_SYSTEM":"UTC","REV_AT_EPOCH":"3653","GP_ID":"228548201","ELEMENT_SET_NO":"999","MEAN_MOTION_DDOT":"0.0000000000000","CLASSIFICATION_TYPE":"U","BSTAR":"0.00007110600000","CENTER_NAME":"EARTH","EPHEMERIS_TYPE":"0","MEAN_MOTION":"15.01264659","TLE_LINE1":"1 53208U 22084V   23079.72673085  .00000854  00000-0  71106-4 0  9999","LAUNCH_DATE":"2022-07-22","ARG_OF_PERICENTER":"237.6910","OBJECT_TYPE":"PAYLOAD","MEAN_MOTION_DOT":"0.00000854","SITE":"AFWTR","NORAD_CAT_ID":"53208","RCS_SIZE":"LARGE"},{"MEAN_MOTION":"15.01264244","TLE_LINE1":"1 53209U 22084W   23079.91768139  .00002000  00000-0  16026-3 0  9990","EPHEMERIS_TYPE":"0","LAUNCH_DATE":"2022-07-22","ARG_OF_PERICENTER":"101.9009","OBJECT_TYPE":"PAYLOAD","MEAN_MOTION_DOT":"0.00002000","SITE":"AFWTR","RCS_SIZE":"LARGE","NORAD_CAT_ID":"53209","REV_AT_EPOCH":"3694","GP_ID":"228524459","TIME_SYSTEM":"UTC","MEAN_MOTION_DDOT":"0.0000000000000","CLASSIFICATION_TYPE":"U","ELEMENT_SET_NO":"999","BSTAR":"0.00016026000000","CENTER_NAME":"EARTH","OBJECT_NAME":"STARLINK-4423","PERIAPSIS":"561.831","FILE":"3866102","PERIOD":"95.919","TLE_LINE2":"2 53209  97.6565 142.2563 0001683 101.9009 258.2404 15.01264244 36946","REF_FRAME":"TEME","RA_OF_ASC_NODE":"142.2563","APOAPSIS":"564.167","ECCENTRICITY":"0.00016830","INCLINATION":"97.6565","OBJECT_ID":"2022-084W","SEMIMAJOR_AXIS":"6941.134","MEAN_ANOMALY":"258.2404","EPOCH":"2023-03-20T22:01:27.672096","MEAN_ELEMENT_THEORY":"SGP4","DECAY_DATE":null,"COUNTRY_CODE":"US"},{"CENTER_NAME":"EARTH","MEAN_MOTION_DDOT":"0.0000000000000","CLASSIFICATION_TYPE":"U","BSTAR":"0.00046542000000","ELEMENT_SET_NO":"999","REV_AT_EPOCH":"3707","GP_ID":"228549203","TIME_SYSTEM":"UTC","NORAD_CAT_ID":"53210","RCS_SIZE":"LARGE","SITE":"AFWTR","MEAN_MOTION_DOT":"0.00005926","OBJECT_TYPE":"PAYLOAD","LAUNCH_DATE":"2022-07-22","ARG_OF_PERICENTER":"127.1138","TLE_LINE1":"1 53210U 22084X   23079.72303139  .00005926  00000-0  46542-3 0  9992","MEAN_MOTION":"15.01275444","EPHEMERIS_TYPE":"0","COUNTRY_CODE":"US","DECAY_DATE":null,"MEAN_ANOMALY":"233.0236","EPOCH":"2023-03-20T17:21:09.912096","MEAN_ELEMENT_THEORY":"SGP4","OBJECT_ID":"2022-084X","SEMIMAJOR_AXIS":"6941.099","RA_OF_ASC_NODE":"142.0603","APOAPSIS":"564.101","ECCENTRICITY":"0.00016380","REF_FRAME":"TEME","INCLINATION":"97.6573","PERIOD":"95.918","TLE_LINE2":"2 53210  97.6573 142.0603 0001638 127.1138 233.0236 15.01275444 37076","PERIAPSIS":"561.827","FILE":"3866115","OBJECT_NAME":"STARLINK-4427"},{"EPHEMERIS_TYPE":"0","TLE_LINE1":"1 53211U 22084Y   23079.71377847  .00001792  00000-0  14404-3 0  9998","MEAN_MOTION":"15.01263427","OBJECT_TYPE":"PAYLOAD","LAUNCH_DATE":"2022-07-22","ARG_OF_PERICENTER":"104.4373","SITE":"AFWTR","MEAN_MOTION_DOT":"0.00001792","NORAD_CAT_ID":"53211","RCS_SIZE":"LARGE","TIME_SYSTEM":"UTC","GP_ID":"228548948","REV_AT_EPOCH":"3705","ELEMENT_SET_NO":"999","MEAN_MOTION_DDOT":"0.0000000000000","CLASSIFICATION_TYPE":"U","BSTAR":"0.00014404000000","CENTER_NAME":"EARTH","OBJECT_NAME":"STARLINK-4419","FILE":"3866115","PERIAPSIS":"561.815","PERIOD":"95.919","TLE_LINE2":"2 53211  97.6565 142.0575 0001709 104.4373 255.7041 15.01263427 37055","INCLINATION":"97.6565","APOAPSIS":"564.188","RA_OF_ASC_NODE":"142.0575","ECCENTRICITY":"0.00017090","REF_FRAME":"TEME","SEMIMAJOR_AXIS":"6941.136","OBJECT_ID":"2022-084Y","MEAN_ELEMENT_THEORY":"SGP4","EPOCH":"2023-03-20T17:07:50.459808","MEAN_ANOMALY":"255.7041","DECAY_DATE":null,"COUNTRY_CODE":"US"},{"CENTER_NAME":"EARTH","REV_AT_EPOCH":"3653","GP_ID":"228547701","TIME_SYSTEM":"UTC","BSTAR":"0.00019477000000","MEAN_MOTION_DDOT":"0.0000000000000","CLASSIFICATION_TYPE":"U","ELEMENT_SET_NO":"999","SITE":"AFWTR","MEAN_MOTION_DOT":"0.00002444","NORAD_CAT_ID":"53212","RCS_SIZE":"LARGE","TLE_LINE1":"1 53212U 22084Z   23079.71748189  .00002444  00000-0  19477-3 0  9990","MEAN_MOTION":"15.01262011","EPHEMERIS_TYPE":"0","OBJECT_TYPE":"PAYLOAD","LAUNCH_DATE":"2022-07-22","ARG_OF_PERICENTER":"106.5117","DECAY_DATE":null,"COUNTRY_CODE":"US","OBJECT_ID":"2022-084Z","SEMIMAJOR_AXIS":"6941.141","MEAN_ANOMALY":"253.6303","EPOCH":"2023-03-20T17:13:10.435296","MEAN_ELEMENT_THEORY":"SGP4","PERIOD":"95.919","TLE_LINE2":"2 53212  97.6576 142.0604 0001784 106.5117 253.6303 15.01262011 36531","RA_OF_ASC_NODE":"142.0604","APOAPSIS":"564.244","ECCENTRICITY":"0.00017840","REF_FRAME":"TEME","INCLINATION":"97.6576","OBJECT_NAME":"STARLINK-4416","PERIAPSIS":"561.767","FILE":"3866115"},{"CENTER_NAME":"EARTH","BSTAR":"-0.00014993000000","MEAN_MOTION_DDOT":"0.0000000000000","CLASSIFICATION_TYPE":"U","ELEMENT_SET_NO":"999","TIME_SYSTEM":"UTC","REV_AT_EPOCH":"3705","GP_ID":"228548452","RCS_SIZE":"LARGE","NORAD_CAT_ID":"53213","MEAN_MOTION_DOT":"-0.00001984","SITE":"AFWTR","ARG_OF_PERICENTER":"98.7971","LAUNCH_DATE":"2022-07-22","OBJECT_TYPE":"PAYLOAD","EPHEMERIS_TYPE":"0","MEAN_MOTION":"15.01253437","TLE_LINE1":"1 53213U 22084AA  23079.70821835 -.00001984  00000-0 -14993-3 0  9998","COUNTRY_CODE":"US","DECAY_DATE":null,"MEAN_ELEMENT_THEORY":"SGP4","EPOCH":"2023-03-20T16:59:50.065440","MEAN_ANOMALY":"261.3446","SEMIMAJOR_AXIS":"6941.167","OBJECT_ID":"2022-084AA","INCLINATION":"97.6544","REF_FRAME":"TEME","ECCENTRICITY":"0.00017000","APOAPSIS":"564.212","RA_OF_ASC_NODE":"142.0523","PERIOD":"95.920","TLE_LINE2":"2 53213  97.6544 142.0523 0001700  98.7971 261.3446 15.01253437 37059","FILE":"3866115","PERIAPSIS":"561.852","OBJECT_NAME":"STARLINK-4414"}];
